      2.10          N: GNSS NAV DATA                        RINEX VERSION / TYPE
fic2rin                                 12/21/2019 00:20:06 PGM / RUN BY / DATE
                                                            END OF HEADER
10 19 12 20 22  0  0.0-1.796465367079e-04-1.409716787748e-11 0.000000000000e+00
    2.300000000000e+01-2.481250000000e+01 4.764484174176e-09 1.345994897450e+00
   -1.259148120880e-06 5.194207653403e-03 5.414709448814e-06 5.153660873413e+03
    5.112000000000e+05-5.587935447693e-09 7.076006817229e-01 6.891787052155e-08
    9.643904869862e-01 2.768750000000e+02-2.723313384271e+00-8.321418049035e-09
    5.178787145843e-11 1.000000000000e+00 2.084000000000e+03 0.000000000000e+00
    2.400000000000e+00 0.000000000000e+00 1.862645149231e-09 2.300000000000e+01
    5.040000000000e+05 4.000000000000e+00
 9 19 12 20 22  0  0.0-1.130234450102e-04-9.322320693173e-12 0.000000000000e+00
    3.300000000000e+01-2.509375000000e+01 4.701267255223e-09-2.374080147110e-01
   -1.557171344757e-06 1.707764109597e-03 1.096539199352e-05 5.153543449402e+03
    5.112000000000e+05 1.303851604462e-08 1.742430051023e+00 9.313225746155e-09
    9.521651395342e-01 1.649687500000e+02 1.684058918922e+00-8.090694152744e-09
   -2.457245211269e-10 1.000000000000e+00 2.084000000000e+03 0.000000000000e+00
    2.400000000000e+00 0.000000000000e+00 1.396983861923e-09 3.300000000000e+01
    5.040000000000e+05 4.000000000000e+00
 8 19 12 20 22  0  0.0-1.744087785482e-05-1.364242052659e-12 0.000000000000e+00
    4.000000000000e+01-4.631250000000e+01 4.219104314058e-09-5.283488818174e-01
   -2.492219209671e-06 4.880924127065e-03 8.702278137207e-06 5.153600030899e+03
    5.112000000000e+05 8.381903171539e-08-1.398770818476e+00-8.568167686462e-08
    9.699463953035e-01 2.193125000000e+02-2.242500394285e-01-8.020691236841e-09
   -3.082271246112e-10 1.000000000000e+00 2.084000000000e+03 0.000000000000e+00
    2.400000000000e+00 0.000000000000e+00 5.122274160385e-09 4.000000000000e+01
    5.040000000000e+05 4.000000000000e+00
11 19 12 20 22  0  0.0-4.136003553867e-04 1.091393642128e-11 0.000000000000e+00
    1.120000000000e+02-8.281250000000e+00 5.271290999000e-09 2.520157358121e+00
   -3.054738044739e-07 1.594907836989e-02 9.654089808464e-06 5.152862154007e+03
    5.112000000000e+05 1.434236764908e-07-7.944390424778e-01 1.154839992523e-07
    9.115642722994e-01 1.645000000000e+02 1.968887282733e+00-8.204984627687e-09
    2.035799084918e-11 1.000000000000e+00 2.084000000000e+03 0.000000000000e+00
    2.400000000000e+00 0.000000000000e+00-1.210719347000e-08 1.120000000000e+02
    5.040000000000e+05 4.000000000000e+00
27 19 12 20 22  0  0.0-1.565031707287e-04-1.159605744760e-11 0.000000000000e+00
    1.000000000000e+01-5.337500000000e+01 4.039811131492e-09-7.399738007076e-01
   -2.887099981308e-06 7.513324497268e-03 8.421018719673e-06 5.153659662247e+03
    5.112000000000e+05 1.601874828339e-07-1.385753946031e+00 1.098960638046e-07
    9.783106630688e-01 2.271875000000e+02 4.976498063234e-01-7.975689362333e-09
   -3.321566928024e-10 1.000000000000e+00 2.084000000000e+03 0.000000000000e+00
    2.400000000000e+00 0.000000000000e+00 1.862645149231e-09 1.000000000000e+01
    5.040000000000e+05 4.000000000000e+00
24 19 12 20 22  0  0.0-6.472691893578e-06-4.547473508865e-13 0.000000000000e+00
    7.000000000000e+00 8.034375000000e+01 5.039852787241e-09-2.691364352071e+00
    3.982335329056e-06 9.312737151049e-03 1.004897058010e-05 5.153670934677e+03
    5.112000000000e+05 3.166496753693e-08 2.747939866337e+00-2.570450305939e-07
    9.375142153902e-01 1.728750000000e+02 6.364103905558e-01-8.207841889560e-09
    2.339383158984e-10 1.000000000000e+00 2.084000000000e+03 0.000000000000e+00
    2.400000000000e+00 0.000000000000e+00 2.793967723846e-09 7.000000000000e+00
    5.040000000000e+05 4.000000000000e+00
17 19 12 20 22  0  0.0 1.842579804361e-04 6.707523425575e-12 0.000000000000e+00
    1.100000000000e+01-4.800000000000e+01 3.974451266134e-09-8.305284854051e-01
   -2.454966306686e-06 1.345291314647e-02 9.838491678238e-06 5.153623609543e+03
    5.112000000000e+05-1.303851604462e-07-1.328310590725e+00 1.247972249985e-07
    9.840432348363e-01 2.059375000000e+02-1.674997705281e+00-8.098194465162e-09
   -2.532248335450e-10 1.000000000000e+00 2.084000000000e+03 0.000000000000e+00
    2.400000000000e+00 0.000000000000e+00-1.117587089539e-08 1.100000000000e+01
    5.040000000000e+05 4.000000000000e+00
16 19 12 20 22  0  0.0-1.050760038197e-04-3.865352482535e-12 0.000000000000e+00
    2.700000000000e+01 8.250000000000e+00 4.432327481373e-09 1.953398816044e-01
    5.550682544708e-07 1.112026721239e-02 3.701075911522e-06 5.153684446335e+03
    5.112000000000e+05 2.048909664154e-08-2.343607417227e+00 9.499490261078e-08
    9.806806912986e-01 3.149062500000e+02 5.829472549845e-01-8.381777706114e-09
   -2.557249376844e-10 1.000000000000e+00 2.084000000000e+03 0.000000000000e+00
    2.400000000000e+00 0.000000000000e+00-1.024454832077e-08 2.700000000000e+01
    5.040000000000e+05 4.000000000000e+00
14 19 12 20 22  0  0.0-4.366226494312e-05 2.273736754432e-12 0.000000000000e+00
    2.900000000000e+01-1.653125000000e+01 4.550189533658e-09-1.052544809848e+00
   -6.742775440216e-07 1.074447482824e-02 1.032091677189e-05 5.153602544785e+03
    5.112000000000e+05-2.980232238770e-08 1.837042977265e+00 2.868473529816e-07
    9.600530358225e-01 1.825000000000e+02-1.930630068777e+00-8.069979004161e-09
   -2.175090601254e-10 1.000000000000e+00 2.084000000000e+03 0.000000000000e+00
    2.400000000000e+00 0.000000000000e+00-9.778887033463e-09 2.900000000000e+01
    5.040000000000e+05 4.000000000000e+00
31 19 12 20 22  0  0.0-1.113070175052e-05-2.501110429876e-12 0.000000000000e+00
    2.700000000000e+01 8.143750000000e+01 4.614835083548e-09 2.304750924733e+00
    4.354864358902e-06 9.640055126511e-03 9.393319487572e-06 5.153758493423e+03
    5.112000000000e+05-2.272427082062e-07 2.832263889308e+00 1.620501279831e-07
    9.588238627939e-01 1.993125000000e+02 8.781822621019e-02-8.056049852527e-09
    1.414344627416e-10 1.000000000000e+00 2.084000000000e+03 0.000000000000e+00
    2.400000000000e+00 0.000000000000e+00-1.350417733192e-08 2.700000000000e+01
    5.040000000000e+05 4.000000000000e+00
30 19 12 20 22  0  0.0-1.104767434299e-04-8.640199666843e-12 0.000000000000e+00
    3.000000000000e+01 9.700000000000e+01 5.163072205539e-09 2.629685440771e+00
    5.058944225311e-06 4.149798071012e-03 8.953735232353e-06 5.153715372086e+03
    5.112000000000e+05-5.215406417847e-08 2.842430985631e+00-1.862645149231e-08
    9.397128101019e-01 1.970000000000e+02-2.923098158131e+00-8.352847929644e-09
    2.757257707994e-10 1.000000000000e+00 2.084000000000e+03 0.000000000000e+00
    2.400000000000e+00 0.000000000000e+00 3.725290298462e-09 3.000000000000e+01
    5.040000000000e+05 4.000000000000e+00
28 19 12 20 22  0  0.0 7.495917379856e-04-2.046363078989e-12 0.000000000000e+00
    2.500000000000e+01 1.968750000000e+00 4.570904682241e-09-1.441882341330e-02
    1.359730958939e-07 1.899201772176e-02 4.513189196587e-06 5.153704126358e+03
    5.112000000000e+05-2.626329660416e-07-2.339778436889e+00-5.774199962616e-08
    9.796672240779e-01 3.062187500000e+02-1.427926309125e+00-8.630002331380e-09
   -2.085801167705e-10 1.000000000000e+00 2.084000000000e+03 0.000000000000e+00
    3.400000000000e+00 0.000000000000e+00-1.117587089539e-08 2.500000000000e+01
    5.040000000000e+05 4.000000000000e+00
15 19 12 20 22  0  0.0-2.642902545631e-04 2.614797267597e-12 0.000000000000e+00
    5.400000000000e+01-4.959375000000e+01 5.271290999000e-09-1.636562329847e+00
   -2.615153789520e-06 1.210727426223e-02 9.408220648766e-06 5.153612115860e+03
    5.112000000000e+05 2.253800630569e-07 1.657040697459e+00-1.359730958939e-07
    9.276710091297e-01 1.727812500000e+02 8.512804713629e-01-8.296774165375e-09
   -1.971510692762e-10 1.000000000000e+00 2.084000000000e+03 0.000000000000e+00
    2.400000000000e+00 0.000000000000e+00-1.117587089539e-08 5.400000000000e+01
    5.040000000000e+05 4.000000000000e+00
21 19 12 20 22  0  0.0-6.790040060878e-05 5.684341886081e-12 0.000000000000e+00
    9.100000000000e+01-5.312500000000e+00 4.594834250433e-09 1.498013892143e+00
   -6.891787052155e-07 2.470322640147e-02 8.968636393547e-06 5.153598598480e+03
    5.112000000000e+05 2.626329660416e-07-4.001142067513e-01-6.258487701416e-07
    9.514146391529e-01 1.996562500000e+02-1.387622992113e+00-8.082836682592e-09
    3.478716331070e-10 1.000000000000e+00 2.084000000000e+03 0.000000000000e+00
    2.400000000000e+00 0.000000000000e+00-1.024454832077e-08 9.100000000000e+01
    5.040000000000e+05 4.000000000000e+00
29 19 12 20 22  0  0.0 1.335470005870e-05-9.890754881781e-12 0.000000000000e+00
    7.700000000000e+01-5.946875000000e+01 3.850874690102e-09-5.535181123426e-01
   -3.147870302200e-06 1.028322847560e-03 8.663162589073e-06 5.153653766632e+03
    5.112000000000e+05-6.891787052155e-08-1.316821610403e+00 9.313225746155e-09
    9.856213094380e-01 2.259687500000e+02 2.020385928521e+00-7.799610599374e-09
   -2.450102056585e-10 1.000000000000e+00 2.084000000000e+03 0.000000000000e+00
    3.400000000000e+00 0.000000000000e+00-9.778887033463e-09 7.700000000000e+01
    5.040000000000e+05 4.000000000000e+00
32 19 12 20 22  0  0.0 1.613940112293e-04 1.125499693444e-11 0.000000000000e+00
    5.300000000000e+01-3.078125000000e+01 4.687695261324e-09 3.301091176841e-02
   -1.588836312294e-06 3.344496828504e-03 1.014024019241e-05 5.153663021088e+03
    5.112000000000e+05-1.490116119385e-08 1.750103122180e+00 5.774199962616e-08
    9.563481226409e-01 1.839062500000e+02-2.548400972432e+00-8.102837515707e-09
   -2.289381076197e-10 1.000000000000e+00 2.084000000000e+03 0.000000000000e+00
    2.400000000000e+00 0.000000000000e+00 4.656612873077e-10 5.300000000000e+01
    5.040000000000e+05 4.000000000000e+00
